start=new Date('2023-06-10T00:00:00.000Z').valueOf();
sats=[{"PERIAPSIS":"538.893","ELEMENT_SET_NO":"999","OBJECT_ID":"2022-045K","DECAY_DATE":null,"OBJECT_NAME":"STARLINK-3818","APOAPSIS":"540.610","SEMIMAJOR_AXIS":"6917.886","RCS_SIZE":"LARGE","CENTER_NAME":"EARTH","PERIOD":"95.438","NORAD_CAT_ID":"52340","ECCENTRICITY":"0.00012410","MEAN_MOTION_DOT":"0.00000240","TIME_SYSTEM":"UTC","MEAN_ANOMALY":"278.6236","MEAN_ELEMENT_THEORY":"SGP4","EPOCH":"2023-06-09T22:04:48.271296","TLE_LINE1":"1 52340U 22045K   23160.92000314  .00000240  00000-0  33170-4 0  9992","CLASSIFICATION_TYPE":"U","RA_OF_ASC_NODE":"25.2142","REF_FRAME":"TEME","COUNTRY_CODE":"US","TLE_LINE2":"2 52340  53.2170  25.2142 0001241  81.4896 278.6236 15.08838140 64231","EPHEMERIS_TYPE":"0","INCLINATION":"53.2170","SITE":"AFETR","GP_ID":"233580684","ARG_OF_PERICENTER":"81.4896","MEAN_MOTION_DDOT":"0.0000000000000","BSTAR":"0.00003317000000","FILE":"3929125","REV_AT_EPOCH":"6423","MEAN_MOTION":"15.08838140","LAUNCH_DATE":"2022-04-29","OBJECT_TYPE":"PAYLOAD"},{"NORAD_CAT_ID":"52341","ECCENTRICITY":"0.00008700","MEAN_MOTION_DOT":"0.00000701","SEMIMAJOR_AXIS":"6917.861","CENTER_NAME":"EARTH","RCS_SIZE":"LARGE","PERIOD":"95.437","OBJECT_NAME":"STARLINK-3843","APOAPSIS":"540.328","PERIAPSIS":"539.124","ELEMENT_SET_NO":"999","DECAY_DATE":null,"OBJECT_ID":"2022-045L","MEAN_MOTION":"15.08846297","REV_AT_EPOCH":"6402","LAUNCH_DATE":"2022-04-29","OBJECT_TYPE":"PAYLOAD","SITE":"AFETR","GP_ID":"233547154","ARG_OF_PERICENTER":"90.2523","FILE":"3928876","BSTAR":"0.00006211200000","MEAN_MOTION_DDOT":"0.0000000000000","COUNTRY_CODE":"US","REF_FRAME":"TEME","EPHEMERIS_TYPE":"0","TLE_LINE2":"2 52341  53.2186  37.6818 0000870  90.2523 269.8569 15.08846297 64028","INCLINATION":"53.2186","MEAN_ANOMALY":"269.8569","MEAN_ELEMENT_THEORY":"SGP4","TIME_SYSTEM":"UTC","EPOCH":"2023-06-09T08:37:58.898208","TLE_LINE1":"1 52341U 22045L   23160.35970947  .00000701  00000-0  62112-4 0  9998","CLASSIFICATION_TYPE":"U","RA_OF_ASC_NODE":"37.6818"},{"APOAPSIS":"540.444","OBJECT_NAME":"STARLINK-3850","PERIAPSIS":"539.074","ELEMENT_SET_NO":"999","DECAY_DATE":null,"OBJECT_ID":"2022-045M","ECCENTRICITY":"0.00009900","MEAN_MOTION_DOT":"0.00001114","NORAD_CAT_ID":"52342","CENTER_NAME":"EARTH","RCS_SIZE":"LARGE","PERIOD":"95.438","SEMIMAJOR_AXIS":"6917.894","INCLINATION":"53.2174","COUNTRY_CODE":"US","REF_FRAME":"TEME","EPHEMERIS_TYPE":"0","TLE_LINE2":"2 52342  53.2174  25.2558 0000990  83.8764 276.2340 15.08835642 64243","RA_OF_ASC_NODE":"25.2558","MEAN_ELEMENT_THEORY":"SGP4","MEAN_ANOMALY":"276.2340","TIME_SYSTEM":"UTC","TLE_LINE1":"1 52342U 22045M   23160.91360249  .00001114  00000-0  88047-4 0  9993","CLASSIFICATION_TYPE":"U","EPOCH":"2023-06-09T21:55:35.255136","OBJECT_TYPE":"PAYLOAD","MEAN_MOTION":"15.08835642","REV_AT_EPOCH":"6424","LAUNCH_DATE":"2022-04-29","ARG_OF_PERICENTER":"83.8764","BSTAR":"0.00008804700000","FILE":"3929125","MEAN_MOTION_DDOT":"0.0000000000000","SITE":"AFETR","GP_ID":"233579683"},{"TIME_SYSTEM":"UTC","MEAN_ELEMENT_THEORY":"SGP4","MEAN_ANOMALY":"288.7972","CLASSIFICATION_TYPE":"U","TLE_LINE1":"1 52343U 22045N   23160.92644433 -.00001157  00000-0 -54649-4 0  9995","EPOCH":"2023-06-09T22:14:04.790112","RA_OF_ASC_NODE":"35.1895","REF_FRAME":"TEME","COUNTRY_CODE":"US","TLE_LINE2":"2 52343  53.2168  35.1895 0001114  71.3141 288.7972 15.08841866 64111","EPHEMERIS_TYPE":"0","INCLINATION":"53.2168","SITE":"AFETR","GP_ID":"233579933","ARG_OF_PERICENTER":"71.3141","MEAN_MOTION_DDOT":"0.0000000000000","BSTAR":"-0.00005464900000","FILE":"3929125","REV_AT_EPOCH":"6411","MEAN_MOTION":"15.08841866","LAUNCH_DATE":"2022-04-29","OBJECT_TYPE":"PAYLOAD","PERIAPSIS":"538.969","ELEMENT_SET_NO":"999","OBJECT_ID":"2022-045N","DECAY_DATE":null,"OBJECT_NAME":"STARLINK-3849","APOAPSIS":"540.510","SEMIMAJOR_AXIS":"6917.875","CENTER_NAME":"EARTH","RCS_SIZE":"LARGE","PERIOD":"95.437","NORAD_CAT_ID":"52343","ECCENTRICITY":"0.00011140","MEAN_MOTION_DOT":"-0.00001157"},{"CLASSIFICATION_TYPE":"U","TLE_LINE1":"1 52344U 22045P   23160.91265194  .00000710  00000-0  62656-4 0  9997","EPOCH":"2023-06-09T21:54:13.127616","TIME_SYSTEM":"UTC","MEAN_ANOMALY":"275.7349","MEAN_ELEMENT_THEORY":"SGP4","RA_OF_ASC_NODE":"25.3181","TLE_LINE2":"2 52344  53.2181  25.3181 0001047  84.3763 275.7349 15.08839839 64240","EPHEMERIS_TYPE":"0","REF_FRAME":"TEME","COUNTRY_CODE":"US","INCLINATION":"53.2181","GP_ID":"233580184","SITE":"AFETR","MEAN_MOTION_DDOT":"0.0000000000000","FILE":"3929125","BSTAR":"0.00006265600000","ARG_OF_PERICENTER":"84.3763","LAUNCH_DATE":"2022-04-29","REV_AT_EPOCH":"6424","MEAN_MOTION":"15.08839839","OBJECT_TYPE":"PAYLOAD","OBJECT_ID":"2022-045P","DECAY_DATE":null,"PERIAPSIS":"539.022","ELEMENT_SET_NO":"999","OBJECT_NAME":"STARLINK-3851","APOAPSIS":"540.470","SEMIMAJOR_AXIS":"6917.881","PERIOD":"95.438","CENTER_NAME":"EARTH","RCS_SIZE":"LARGE","NORAD_CAT_ID":"52344","ECCENTRICITY":"0.00010470","MEAN_MOTION_DOT":"0.00000710"},{"NORAD_CAT_ID":"52345","MEAN_MOTION_DOT":"0.00000733","ECCENTRICITY":"0.00013740","SEMIMAJOR_AXIS":"6917.892","CENTER_NAME":"EARTH","RCS_SIZE":"LARGE","PERIOD":"95.438","OBJECT_NAME":"STARLINK-3852","APOAPSIS":"540.708","ELEMENT_SET_NO":"999","PERIAPSIS":"538.806","OBJECT_ID":"2022-045Q","DECAY_DATE":null,"REV_AT_EPOCH":"6423","MEAN_MOTION":"15.08836196","LAUNCH_DATE":"2022-04-29","OBJECT_TYPE":"PAYLOAD","SITE":"AFETR","GP_ID":"233580433","ARG_OF_PERICENTER":"84.0530","MEAN_MOTION_DDOT":"0.0000000000000","FILE":"3929125","BSTAR":"0.00006415700000","REF_FRAME":"TEME","COUNTRY_CODE":"US","TLE_LINE2":"2 52345  53.2183  25.2017 0001374  84.0530 276.0619 15.08836196 64238","EPHEMERIS_TYPE":"0","INCLINATION":"53.2183","TIME_SYSTEM":"UTC","MEAN_ELEMENT_THEORY":"SGP4","MEAN_ANOMALY":"276.0619","TLE_LINE1":"1 52345U 22045Q   23160.92368533  .00000733  00000-0  64157-4 0  9993","EPOCH":"2023-06-09T22:10:06.412512","CLASSIFICATION_TYPE":"U","RA_OF_ASC_NODE":"25.2017"},{"REF_FRAME":"TEME","COUNTRY_CODE":"US","TLE_LINE2":"2 52346  53.2170  25.2883 0001102  84.6503 275.4615 15.08840111 64243","EPHEMERIS_TYPE":"0","INCLINATION":"53.2170","TIME_SYSTEM":"UTC","MEAN_ANOMALY":"275.4615","MEAN_ELEMENT_THEORY":"SGP4","TLE_LINE1":"1 52346U 22045R   23160.90624118  .00000921  00000-0  75964-4 0  9993","CLASSIFICATION_TYPE":"U","EPOCH":"2023-06-09T21:44:59.237952","RA_OF_ASC_NODE":"25.2883","REV_AT_EPOCH":"6424","MEAN_MOTION":"15.08840111","LAUNCH_DATE":"2022-04-29","OBJECT_TYPE":"PAYLOAD","SITE":"AFETR","GP_ID":"233579183","ARG_OF_PERICENTER":"84.6503","MEAN_MOTION_DDOT":"0.0000000000000","BSTAR":"0.00007596400000","FILE":"3929125","OBJECT_NAME":"STARLINK-3812","APOAPSIS":"540.507","PERIAPSIS":"538.983","ELEMENT_SET_NO":"999","OBJECT_ID":"2022-045R","DECAY_DATE":null,"NORAD_CAT_ID":"52346","ECCENTRICITY":"0.00011020","MEAN_MOTION_DOT":"0.00000921","SEMIMAJOR_AXIS":"6917.880","RCS_SIZE":"LARGE","CENTER_NAME":"EARTH","PERIOD":"95.438"},{"LAUNCH_DATE":"2022-04-29","MEAN_MOTION":"15.08836610","REV_AT_EPOCH":"6424","OBJECT_TYPE":"PAYLOAD","GP_ID":"233579433","SITE":"AFETR","BSTAR":"0.00004532800000","FILE":"3929125","MEAN_MOTION_DDOT":"0.0000000000000","ARG_OF_PERICENTER":"89.2244","EPHEMERIS_TYPE":"0","TLE_LINE2":"2 52347  53.2166  25.2383 0001027  89.2244 270.8866 15.08836610 64249","COUNTRY_CODE":"US","REF_FRAME":"TEME","INCLINATION":"53.2166","EPOCH":"2023-06-09T22:00:53.322912","TLE_LINE1":"1 52347U 22045S   23160.91728383  .00000434  00000-0  45328-4 0  9994","CLASSIFICATION_TYPE":"U","MEAN_ANOMALY":"270.8866","MEAN_ELEMENT_THEORY":"SGP4","TIME_SYSTEM":"UTC","RA_OF_ASC_NODE":"25.2383","NORAD_CAT_ID":"52347","MEAN_MOTION_DOT":"0.00000434","ECCENTRICITY":"0.00010270","SEMIMAJOR_AXIS":"6917.891","PERIOD":"95.438","RCS_SIZE":"LARGE","CENTER_NAME":"EARTH","OBJECT_NAME":"STARLINK-3826","APOAPSIS":"540.466","DECAY_DATE":null,"OBJECT_ID":"2022-045S","ELEMENT_SET_NO":"999","PERIAPSIS":"539.045"},{"NORAD_CAT_ID":"52348","MEAN_MOTION_DOT":"-0.00000330","ECCENTRICITY":"0.00012320","SEMIMAJOR_AXIS":"6917.885","PERIOD":"95.438","RCS_SIZE":"LARGE","CENTER_NAME":"EARTH","OBJECT_NAME":"STARLINK-3829","APOAPSIS":"540.602","DECAY_DATE":null,"OBJECT_ID":"2022-045T","ELEMENT_SET_NO":"999","PERIAPSIS":"538.898","LAUNCH_DATE":"2022-04-29","MEAN_MOTION":"15.08838542","REV_AT_EPOCH":"6424","OBJECT_TYPE":"PAYLOAD","GP_ID":"233580685","SITE":"AFETR","FILE":"3929125","BSTAR":"-0.00000263440000","MEAN_MOTION_DDOT":"0.0000000000000","ARG_OF_PERICENTER":"81.3731","EPHEMERIS_TYPE":"0","TLE_LINE2":"2 52348  53.2173  25.3200 0001232  81.3731 278.7401 15.08838542 64247","COUNTRY_CODE":"US","REF_FRAME":"TEME","INCLINATION":"53.2173","EPOCH":"2023-06-09T21:33:00.719136","TLE_LINE1":"1 52348U 22045T   23160.89792499 -.00000330  00000-0 -26344-5 0  9996","CLASSIFICATION_TYPE":"U","MEAN_ANOMALY":"278.7401","MEAN_ELEMENT_THEORY":"SGP4","TIME_SYSTEM":"UTC","RA_OF_ASC_NODE":"25.3200"},{"PERIAPSIS":"538.966","ELEMENT_SET_NO":"999","OBJECT_ID":"2022-045U","DECAY_DATE":null,"APOAPSIS":"540.546","OBJECT_NAME":"STARLINK-3819","RCS_SIZE":"LARGE","CENTER_NAME":"EARTH","PERIOD":"95.438","SEMIMAJOR_AXIS":"6917.891","ECCENTRICITY":"0.00011420","MEAN_MOTION_DOT":"0.00000907","NORAD_CAT_ID":"52349","RA_OF_ASC_NODE":"25.2657","TIME_SYSTEM":"UTC","MEAN_ANOMALY":"272.0903","MEAN_ELEMENT_THEORY":"SGP4","EPOCH":"2023-06-09T21:48:54.588096","TLE_LINE1":"1 52349U 22045U   23160.90896514  .00000907  00000-0  75075-4 0  9994","CLASSIFICATION_TYPE":"U","INCLINATION":"53.2184","REF_FRAME":"TEME","COUNTRY_CODE":"US","TLE_LINE2":"2 52349  53.2184  25.2657 0001142  88.0220 272.0903 15.08836583 64249","EPHEMERIS_TYPE":"0","ARG_OF_PERICENTER":"88.0220","MEAN_MOTION_DDOT":"0.0000000000000","FILE":"3929125","BSTAR":"0.00007507500000","SITE":"AFETR","GP_ID":"233580934","OBJECT_TYPE":"PAYLOAD","REV_AT_EPOCH":"6424","MEAN_MOTION":"15.08836583","LAUNCH_DATE":"2022-04-29"}];
